{
  "type": "FeatureCollection",
  "features": [
    {
      "type": "Feature",
      "properties": {
        "norad_id": 41330,
        "name": "COSMOS 2514 (751)",
        "group": "glo-ops",
        "lat": 55.78041537684327,
        "lon": 2.482371203577547,
        "alt_km": 19151.803037529593,
        "timestamp": "2025-12-09T07:41:33.468804+00:00",
        "meta_object_name": "COSMOS 2514 (751)",
        "meta_object_id": "2016-008A",
        "meta_epoch": "2025-12-08T07:06:30.420288",
        "meta_mean_motion": 2.13102512,
        "meta_eccentricity": 0.00122682,
        "meta_inclination": 65.1364,
        "meta_ra_of_asc_node": 319.5561,
        "meta_arg_of_pericenter": 220.0272,
        "meta_mean_anomaly": 139.8771,
        "meta_ephemeris_type": 0,
        "meta_classification_type": "U",
        "meta_norad_cat_id": 41330,
        "meta_element_set_no": 999,
        "meta_rev_at_epoch": 7655,
        "meta_bstar": 0,
        "meta_mean_motion_dot": -4.9e-07,
        "meta_mean_motion_ddot": 0,
        "tle_line1": "1 41330U 16008A   25342.29618542 -.00000049  00000+0  00000+0 0  9991",
        "tle_line2": "2 41330  65.1364 319.5561 0012268 220.0272 139.8771  2.13102512 76558"
      },
      "geometry": {
        "type": "Point",
        "coordinates": [
          2.482371203577547,
          55.78041537684327
        ]
      }
    },
    {
      "type": "Feature",
      "properties": {
        "norad_id": 42939,
        "name": "COSMOS 2522 (752)",
        "group": "glo-ops",
        "lat": -8.783786080336544,
        "lon": 22.66020619670141,
        "alt_km": 19118.13895016256,
        "timestamp": "2025-12-09T07:41:33.468816+00:00",
        "meta_object_name": "COSMOS 2522 (752)",
        "meta_object_id": "2017-055A",
        "meta_epoch": "2025-12-08T03:13:49.063296",
        "meta_mean_motion": 2.13101881,
        "meta_eccentricity": 0.00064484,
        "meta_inclination": 64.0758,
        "meta_ra_of_asc_node": 198.386,
        "meta_arg_of_pericenter": 225.1717,
        "meta_mean_anomaly": 134.8539,
        "meta_ephemeris_type": 0,
        "meta_classification_type": "U",
        "meta_norad_cat_id": 42939,
        "meta_element_set_no": 999,
        "meta_rev_at_epoch": 6390,
        "meta_bstar": 0,
        "meta_mean_motion_dot": 5.1e-07,
        "meta_mean_motion_ddot": 0,
        "tle_line1": "1 42939U 17055A   25342.13459564  .00000051  00000+0  00000+0 0  9992",
        "tle_line2": "2 42939  64.0758 198.3860 0006448 225.1717 134.8539  2.13101881 63907"
      },
      "geometry": {
        "type": "Point",
        "coordinates": [
          22.66020619670141,
          -8.783786080336544
        ]
      }
    },
    {
      "type": "Feature",
      "properties": {
        "norad_id": 43508,
        "name": "COSMOS 2527 (756)",
        "group": "glo-ops",
        "lat": -35.6920207863126,
        "lon": -80.62942293030257,
        "alt_km": 19112.28754758569,
        "timestamp": "2025-12-09T07:41:33.468827+00:00",
        "meta_object_name": "COSMOS 2527 (756)",
        "meta_object_id": "2018-053A",
        "meta_epoch": "2025-12-08T13:33:02.442240",
        "meta_mean_motion": 2.1310206,
        "meta_eccentricity": 0.0008756,
        "meta_inclination": 65.4701,
        "meta_ra_of_asc_node": 80.2713,
        "meta_arg_of_pericenter": 225.5022,
        "meta_mean_anomaly": 134.4409,
        "meta_ephemeris_type": 0,
        "meta_classification_type": "U",
        "meta_norad_cat_id": 43508,
        "meta_element_set_no": 999,
        "meta_rev_at_epoch": 5821,
        "meta_bstar": 0,
        "meta_mean_motion_dot": -1e-07,
        "meta_mean_motion_ddot": 0,
        "tle_line1": "1 43508U 18053A   25342.56461160 -.00000010  00000+0  00000+0 0  9992",
        "tle_line2": "2 43508  65.4701  80.2713 0008756 225.5022 134.4409  2.13102060 58216"
      },
      "geometry": {
        "type": "Point",
        "coordinates": [
          -80.62942293030257,
          -35.6920207863126
        ]
      }
    },
    {
      "type": "Feature",
      "properties": {
        "norad_id": 43687,
        "name": "COSMOS 2529 (757)",
        "group": "glo-ops",
        "lat": 31.068471054173482,
        "lon": 2.1340288543382178,
        "alt_km": 19132.334438706825,
        "timestamp": "2025-12-09T07:41:33.468839+00:00",
        "meta_object_name": "COSMOS 2529 (757)",
        "meta_object_id": "2018-086A",
        "meta_epoch": "2025-12-08T04:37:38.472960",
        "meta_mean_motion": 2.13101938,
        "meta_eccentricity": 0.0007175,
        "meta_inclination": 64.2918,
        "meta_ra_of_asc_node": 199.0421,
        "meta_arg_of_pericenter": 254.1873,
        "meta_mean_anomaly": 105.8121,
        "meta_ephemeris_type": 0,
        "meta_classification_type": "U",
        "meta_norad_cat_id": 43687,
        "meta_element_set_no": 999,
        "meta_rev_at_epoch": 5521,
        "meta_bstar": 0,
        "meta_mean_motion_dot": 5e-07,
        "meta_mean_motion_ddot": 0,
        "tle_line1": "1 43687U 18086A   25342.19280640  .00000050  00000+0  00000+0 0  9990",
        "tle_line2": "2 43687  64.2918 199.0421 0007175 254.1873 105.8121  2.13101938 55215"
      },
      "geometry": {
        "type": "Point",
        "coordinates": [
          2.1340288543382178,
          31.068471054173482
        ]
      }
    },
    {
      "type": "Feature",
      "properties": {
        "norad_id": 44299,
        "name": "COSMOS 2534 (758)",
        "group": "glo-ops",
        "lat": -62.755869042425424,
        "lon": 130.16868472187008,
        "alt_km": 19113.46669898614,
        "timestamp": "2025-12-09T07:41:33.468851+00:00",
        "meta_object_name": "COSMOS 2534 (758)",
        "meta_object_id": "2019-030A",
        "meta_epoch": "2025-12-09T00:14:05.856000",
        "meta_mean_motion": 2.13102084,
        "meta_eccentricity": 0.00090149,
        "meta_inclination": 64.3653,
        "meta_ra_of_asc_node": 199.0188,
        "meta_arg_of_pericenter": 283.3878,
        "meta_mean_anomaly": 117.7908,
        "meta_ephemeris_type": 0,
        "meta_classification_type": "U",
        "meta_norad_cat_id": 44299,
        "meta_element_set_no": 999,
        "meta_rev_at_epoch": 5087,
        "meta_bstar": 0,
        "meta_mean_motion_dot": 4.5e-07,
        "meta_mean_motion_ddot": 0,
        "tle_line1": "1 44299U 19030A   25343.00979000  .00000045  00000+0  00000+0 0  9990",
        "tle_line2": "2 44299  64.3653 199.0188 0009014 283.3878 117.7908  2.13102084 50870"
      },
      "geometry": {
        "type": "Point",
        "coordinates": [
          130.16868472187008,
          -62.755869042425424
        ]
      }
    },
    {
      "type": "Feature",
      "properties": {
        "norad_id": 44850,
        "name": "COSMOS 2544 (759)",
        "group": "glo-ops",
        "lat": -64.38733144298044,
        "lon": -27.820449916243913,
        "alt_km": 19102.682784195964,
        "timestamp": "2025-12-09T07:41:33.468862+00:00",
        "meta_object_name": "COSMOS 2544 (759)",
        "meta_object_id": "2019-088A",
        "meta_epoch": "2025-12-08T00:57:27.919872",
        "meta_mean_motion": 2.13101724,
        "meta_eccentricity": 0.00136378,
        "meta_inclination": 65.4575,
        "meta_ra_of_asc_node": 80.1157,
        "meta_arg_of_pericenter": 249.1317,
        "meta_mean_anomaly": 110.7358,
        "meta_ephemeris_type": 0,
        "meta_classification_type": "U",
        "meta_norad_cat_id": 44850,
        "meta_element_set_no": 999,
        "meta_rev_at_epoch": 4664,
        "meta_bstar": 0,
        "meta_mean_motion_dot": -1e-07,
        "meta_mean_motion_ddot": 0,
        "tle_line1": "1 44850U 19088A   25342.03990648 -.00000010  00000+0  00000+0 0  9992",
        "tle_line2": "2 44850  65.4575  80.1157 0013637 249.1317 110.7358  2.13101724 46640"
      },
      "geometry": {
        "type": "Point",
        "coordinates": [
          -27.820449916243913,
          -64.38733144298044
        ]
      }
    },
    {
      "type": "Feature",
      "properties": {
        "norad_id": 45358,
        "name": "COSMOS 2545 (760)",
        "group": "glo-ops",
        "lat": 56.74519882014245,
        "lon": 92.31269503072042,
        "alt_km": 19145.70206312607,
        "timestamp": "2025-12-09T07:41:33.468874+00:00",
        "meta_object_name": "COSMOS 2545 (760)",
        "meta_object_id": "2020-018A",
        "meta_epoch": "2025-12-08T16:55:08.218272",
        "meta_mean_motion": 2.13102249,
        "meta_eccentricity": 0.00119292,
        "meta_inclination": 64.4721,
        "meta_ra_of_asc_node": 319.1115,
        "meta_arg_of_pericenter": 248.7134,
        "meta_mean_anomaly": 111.1544,
        "meta_ephemeris_type": 0,
        "meta_classification_type": "U",
        "meta_norad_cat_id": 45358,
        "meta_element_set_no": 999,
        "meta_rev_at_epoch": 4460,
        "meta_bstar": 0,
        "meta_mean_motion_dot": -5e-07,
        "meta_mean_motion_ddot": 0,
        "tle_line1": "1 45358U 20018A   25342.70495623 -.00000050  00000+0  00000+0 0  9992",
        "tle_line2": "2 45358  64.4721 319.1115 0011929 248.7134 111.1544  2.13102249 44608"
      },
      "geometry": {
        "type": "Point",
        "coordinates": [
          92.31269503072042,
          56.74519882014245
        ]
      }
    }
  ]
}